[{"OBJECT_NAME":"SDA_1683","OBJECT_ID":"2025-230V","EPOCH":"2026-03-09T17:24:00.607392","MEAN_MOTION":13.84109242,"ECCENTRICITY":0.0001019,"INCLINATION":81.3007,"RA_OF_ASC_NODE":303.9867,"ARG_OF_PERICENTER":88.3759,"MEAN_ANOMALY":271.7514,"EPHEMERIS_TYPE":0,"CLASSIFICATION_TYPE":"U","NORAD_CAT_ID":65993,"ELEMENT_SET_NO":999,"REV_AT_EPOCH":2004,"BSTAR":-0.0044459645,"MEAN_MOTION_DOT":-4.932e-5,"MEAN_MOTION_DDOT":0},{"OBJECT_NAME":"YAOGAN-50 01","OBJECT_ID":"2026-006A","EPOCH":"2026-03-09T21:57:44.750592","MEAN_MOTION":13.83251108,"ECCENTRICITY":0.00011096,"INCLINATION":142.0346,"RA_OF_ASC_NODE":96.0351,"ARG_OF_PERICENTER":270.9545,"MEAN_ANOMALY":89.1047,"EPHEMERIS_TYPE":0,"CLASSIFICATION_TYPE":"U","NORAD_CAT_ID":67433,"ELEMENT_SET_NO":999,"REV_AT_EPOCH":768,"BSTAR":0.00014147475,"MEAN_MOTION_DOT":3.45e-6,"MEAN_MOTION_DDOT":0}]
